STARLINK-30497          
1 58011U 23153W   26067.73183320  .00002084  00000+0  87317-4 0  9990
2 58011  43.0056  72.1224 0001639 251.9212 108.1461 15.26752453134755
PHISAT 2                
1 60470U 24149C   26068.78834181  .00008925  00000+0  31421-3 0  9996
2 60470  97.3806 148.6498 0001175 168.6230 191.5037 15.29548631 86792
